[{"OBJECT_NAME":"STARLINK-36840","OBJECT_ID":"2026-034A","EPOCH":"2026-03-09T20:35:37.292928","MEAN_MOTION":15.80967655,"ECCENTRICITY":6.96e-5,"INCLINATION":53.1584,"RA_OF_ASC_NODE":210.5138,"ARG_OF_PERICENTER":80.7974,"MEAN_ANOMALY":279.3127,"EPHEMERIS_TYPE":0,"CLASSIFICATION_TYPE":"U","NORAD_CAT_ID":67850,"ELEMENT_SET_NO":999,"REV_AT_EPOCH":396,"BSTAR":0.0012345617,"MEAN_MOTION_DOT":0.00251284,"MEAN_MOTION_DDOT":0},{"OBJECT_NAME":"CRRES","OBJECT_ID":"1990-065A","EPOCH":"2026-03-07T20:54:37.863648","MEAN_MOTION":2.49906832,"ECCENTRICITY":0.70788148,"INCLINATION":18.1582,"RA_OF_ASC_NODE":344.0805,"ARG_OF_PERICENTER":205.189,"MEAN_ANOMALY":89.2671,"EPHEMERIS_TYPE":0,"CLASSIFICATION_TYPE":"U","NORAD_CAT_ID":20712,"ELEMENT_SET_NO":999,"REV_AT_EPOCH":30717,"BSTAR":0.0010430164,"MEAN_MOTION_DOT":8.74e-6,"MEAN_MOTION_DDOT":0}]
